{
"type": "FeatureCollection",
"name": "duplicate_gp_conflicts",
"crs": { "type": "name", "properties": { "name": "urn:ogc:def:crs:OGC:1.3:CRS84" } },
"features": [
{ "type": "Feature", "properties": { "gp_code": "254439", "gp_name": "MAYEM", "blklgdcode": "5930", "blk_lgdcod": "5930", "blkname": "Bicholim", "dtname": "North Goa", "stname": "GOA" }, "geometry": { "type": "Polygon", "coordinates": [ [ [ 74.259928893777385, 15.598134614594773 ], [ 74.25841592692133, 15.597850068303449 ], [ 74.257693086748205, 15.59784715593011 ], [ 74.256745842925497, 15.597900824578929 ], [ 74.256298516948291, 15.597873556774704 ], [ 74.256048397227133, 15.59771303962153 ], [ 74.255639917996064, 15.597537225005595 ], [ 74.255291683381245, 15.597402680203402 ], [ 74.25493188385542, 15.597466781099067 ], [ 74.254403812808903, 15.597565307904828 ], [ 74.254013095067663, 15.597480020914443 ], [ 74.253414652696748, 15.597198367063017 ], [ 74.253093803223351, 15.597104792691255 ], [ 74.252776875794467, 15.597092532298751 ], [ 74.252566608932568, 15.597131047406499 ], [ 74.252230064094505, 15.597208841603317 ], [ 74.25192530793943, 15.597359375206828 ], [ 74.251532250086854, 15.597481765226748 ], [ 74.25076003131916, 15.596886761790897 ], [ 74.25013176757578, 15.596333878204913 ], [ 74.249760483089034, 15.596172023917363 ], [ 74.249299720111836, 15.595252206198593 ], [ 74.248125348947653, 15.593679625861919 ], [ 74.246282347344447, 15.593464972725251 ], [ 74.244858020850756, 15.592998397597547 ], [ 74.243886747992548, 15.593432530994093 ], [ 74.242378060710536, 15.593967783427418 ], [ 74.240877097143326, 15.594286238105621 ], [ 74.240035275110799, 15.594473699134696 ], [ 74.239766877368524, 15.594659790307849 ], [ 74.239413299574366, 15.594614368340086 ], [ 74.239329132822149, 15.594626732710152 ], [ 74.238794159120957, 15.594560697966706 ], [ 74.238626990731447, 15.594508699236128 ], [ 74.23836190687426, 15.594468974886286 ], [ 74.238148427636872, 15.594398339572386 ], [ 74.237962612916974, 15.594350712030964 ], [ 74.237767188918511, 15.594325434689804 ], [ 74.237437353597301, 15.594253196887461 ], [ 74.236833809693891, 15.594077807606151 ], [ 74.23618366119355, 15.593910883774559 ], [ 74.236081141860069, 15.593909464765661 ], [ 74.235829899244763, 15.593874392746365 ], [ 74.235400890814532, 15.593882111636786 ], [ 74.235293955363119, 15.593862625353143 ], [ 74.235084014589631, 15.593873284361772 ], [ 74.234804808317861, 15.593842394952945 ], [ 74.234613601011304, 15.59384886701994 ], [ 74.234562489566585, 15.593834605110544 ], [ 74.234390024710137, 15.593832235191735 ], [ 74.234194989682194, 15.593779946417953 ], [ 74.234083052411265, 15.59378746284346 ], [ 74.233999562090432, 15.593763701350897 ], [ 74.23353847392309, 15.593734813248993 ], [ 74.233203447237869, 15.593689655843102 ], [ 74.232929638942622, 15.593600096365369 ], [ 74.232725187773866, 15.593556652126466 ], [ 74.231822921699134, 15.593417858926625 ], [ 74.230533047850656, 15.592677404860703 ], [ 74.229550740087461, 15.591620421925429 ], [ 74.227254280606957, 15.589899494213967 ], [ 74.226646938626502, 15.589674340569589 ], [ 74.225538095070718, 15.589952894112301 ], [ 74.224065776082952, 15.590230956671984 ], [ 74.223014335772135, 15.590081067655817 ], [ 74.222190300382238, 15.58969482663421 ], [ 74.221096222434781, 15.588957057920211 ], [ 74.219700826184805, 15.587785902713991 ], [ 74.218959018084433, 15.587504702812868 ], [ 74.218272042250689, 15.587310034585171 ], [ 74.217279908714943, 15.586939610838916 ], [ 74.218228565587566, 15.586134870653273 ], [ 74.219108722326538, 15.585234271832372 ], [ 74.219781156232457, 15.584511615807749 ], [ 74.220290208147802, 15.584121009305038 ], [ 74.220604621192166, 15.583018427140908 ], [ 74.220434520701545, 15.582857950292816 ], [ 74.219568180949977, 15.582489239594814 ], [ 74.2185952012927, 15.582087389876788 ], [ 74.218572025656684, 15.582078046376465 ], [ 74.219273225414639, 15.580976193083233 ], [ 74.21992784123691, 15.579878327279737 ], [ 74.220859468746681, 15.579276674844721 ], [ 74.220930618910472, 15.579196301284517 ], [ 74.221124248973325, 15.579018258213111 ], [ 74.2211387711382, 15.578986826615381 ], [ 74.22124232173762, 15.578915920326049 ], [ 74.221460818065879, 15.578634298990501 ], [ 74.221685281902538, 15.578266920221512 ], [ 74.22188743877409, 15.577822440191616 ], [ 74.222184008582005, 15.577306933807249 ], [ 74.222517638386947, 15.576800955914644 ], [ 74.22269016612546, 15.576473543996725 ], [ 74.22291849002292, 15.576155909719919 ], [ 74.222971443013961, 15.576043671094531 ], [ 74.223132540588807, 15.575865191763958 ], [ 74.223477019347456, 15.575250931002367 ], [ 74.22380827490511, 15.574912076096368 ], [ 74.226460904717698, 15.575517552207771 ], [ 74.228050482596075, 15.576153611419059 ], [ 74.229011159825532, 15.57644230238083 ], [ 74.229741445235774, 15.576542613183756 ], [ 74.230962420098578, 15.576559254199781 ], [ 74.231671457657413, 15.576202984211596 ], [ 74.232747857658381, 15.575259843014445 ], [ 74.233727338423378, 15.574247646592134 ], [ 74.234634884795341, 15.573053695038558 ], [ 74.235142399693203, 15.572125419798134 ], [ 74.235552321618613, 15.571494023575431 ], [ 74.236010590872596, 15.570745806213379 ], [ 74.236336964984972, 15.569453624646663 ], [ 74.236316682822505, 15.569245541056233 ], [ 74.237670732314882, 15.568757913084827 ], [ 74.238191961792168, 15.568489401828559 ], [ 74.238904884564576, 15.568178336261683 ], [ 74.239681711689698, 15.567962983234123 ], [ 74.240675908655646, 15.567542773323957 ], [ 74.241316261027848, 15.567095207591013 ], [ 74.241937969764635, 15.566647305122796 ], [ 74.242767313299552, 15.566017004076096 ], [ 74.243458596555072, 15.565592691804534 ], [ 74.24454359522997, 15.565336296783476 ], [ 74.245511203860161, 15.565141597174188 ], [ 74.245578629608758, 15.565177983403016 ], [ 74.245751652318972, 15.565271351646503 ], [ 74.245781689287156, 15.565429542072687 ], [ 74.245864325310109, 15.565864747060852 ], [ 74.246380667952295, 15.566951849034979 ], [ 74.245394637570556, 15.566661864008443 ], [ 74.245192972975786, 15.566602556273299 ], [ 74.245223002757427, 15.566760729233733 ], [ 74.245305617220851, 15.567195889867815 ], [ 74.246164983350894, 15.569005354347272 ], [ 74.248256717676483, 15.573252845369572 ], [ 74.249014008240778, 15.574708615432357 ], [ 74.249223181853012, 15.575072840381351 ], [ 74.249905578075428, 15.576473415063603 ], [ 74.249907404350395, 15.57647600324402 ], [ 74.249907965797433, 15.576477155853945 ], [ 74.250387238561089, 15.577156489344391 ], [ 74.250534416740607, 15.577365101425482 ], [ 74.249406245033185, 15.579155010355214 ], [ 74.249225207553962, 15.579442232995978 ], [ 74.248846760799495, 15.580174510031 ], [ 74.248741280618859, 15.580378611667779 ], [ 74.248744121091775, 15.580381472370513 ], [ 74.248743665645918, 15.580382352387044 ], [ 74.249244490789863, 15.580886662673709 ], [ 74.251687240914393, 15.583467470737148 ], [ 74.253380025337492, 15.585146498078988 ], [ 74.254522408392717, 15.586413529369256 ], [ 74.255577441066364, 15.587575778327889 ], [ 74.257323435398689, 15.589508261120523 ], [ 74.259688439030313, 15.591966352172703 ], [ 74.260247657362683, 15.592633030277762 ], [ 74.260249084785684, 15.592930200927183 ], [ 74.260109459641043, 15.593764164259614 ], [ 74.259844206002285, 15.595003219202921 ], [ 74.259592136936917, 15.596319244415293 ], [ 74.259692146377503, 15.597408508423614 ], [ 74.259785357368031, 15.597842943111878 ], [ 74.259928893777385, 15.598134614594773 ] ] ] } },
{ "type": "Feature", "properties": { "gp_code": "254439", "gp_name": "MAYEM", "blklgdcode": "5930", "blk_lgdcod": "5930", "blkname": "Bicholim", "dtname": "North Goa", "stname": "GOA" }, "geometry": { "type": "Polygon", "coordinates": [ [ [ 73.921225749958481, 15.600785361424325 ], [ 73.920791048005967, 15.600896609695479 ], [ 73.91993423309134, 15.601241910004598 ], [ 73.918724902191244, 15.601782888838034 ], [ 73.917871558366883, 15.602213117111223 ], [ 73.917281955418346, 15.602576641778345 ], [ 73.916466199800439, 15.603087608129092 ], [ 73.915585831957358, 15.603602496062553 ], [ 73.913835897614234, 15.604726345136156 ], [ 73.910789830860026, 15.606284550360774 ], [ 73.910866200235589, 15.60406724312783 ], [ 73.91105009884896, 15.601742596583779 ], [ 73.911158350332286, 15.601158418140686 ], [ 73.911351407270004, 15.599463684641046 ], [ 73.911239322675371, 15.599179017330201 ], [ 73.910084742295197, 15.597803144997251 ], [ 73.909213840000305, 15.596885411156277 ], [ 73.907885038557296, 15.597242269971112 ], [ 73.905593136230195, 15.598076066965202 ], [ 73.903046637876855, 15.599130972993269 ], [ 73.900832783876609, 15.60006835639914 ], [ 73.898108517013355, 15.601874991075166 ], [ 73.895857517676092, 15.603126137685503 ], [ 73.894074909809447, 15.603862599192176 ], [ 73.892951502766252, 15.604147069659955 ], [ 73.892482502237911, 15.604271872150829 ], [ 73.891394219322322, 15.604163724878012 ], [ 73.891575366395983, 15.603817283086123 ], [ 73.891851086306147, 15.60320708762659 ], [ 73.891688283728897, 15.602052547978674 ], [ 73.891434733341654, 15.601027479351051 ], [ 73.891340219793975, 15.600538111583894 ], [ 73.891707262435915, 15.600046854732126 ], [ 73.89207649786546, 15.599709149951847 ], [ 73.892836774429753, 15.599400113887461 ], [ 73.89361687232082, 15.59902360258106 ], [ 73.89407813386299, 15.598755142128185 ], [ 73.894713941658168, 15.598642921043544 ], [ 73.894972549560478, 15.598796001693868 ], [ 73.89550000166777, 15.598754522624324 ], [ 73.89634905513833, 15.598153140931213 ], [ 73.896558341039963, 15.597614230820501 ], [ 73.896509043293776, 15.596926668237762 ], [ 73.896462211423071, 15.596370253719099 ], [ 73.896366373758696, 15.595392933707048 ], [ 73.896069041281109, 15.593910996256975 ], [ 73.895426185304203, 15.592464334958864 ], [ 73.894733089248433, 15.591238293787155 ], [ 73.894345979141349, 15.590396461866421 ], [ 73.89376998926268, 15.589705390679873 ], [ 73.892828750677637, 15.589117059296726 ], [ 73.891816044823571, 15.588898114840532 ], [ 73.891402013105747, 15.588851115074995 ], [ 73.890758276779891, 15.588872754627426 ], [ 73.890348550687207, 15.588563689270945 ], [ 73.88986279388385, 15.588054684683298 ], [ 73.889358832721243, 15.587518298033945 ], [ 73.888988936131639, 15.587051794191542 ], [ 73.888550753207426, 15.585915514604425 ], [ 73.888437145968396, 15.584892660143044 ], [ 73.888527660216397, 15.584487505395664 ], [ 73.888758731161985, 15.584043814122744 ], [ 73.888984777830203, 15.58362263421219 ], [ 73.888985220699652, 15.583310906233926 ], [ 73.888940981366858, 15.58260083611065 ], [ 73.888208124978291, 15.581527788048557 ], [ 73.887490412388757, 15.581241079716882 ], [ 73.8873994498814, 15.579970177154205 ], [ 73.887194496554386, 15.579393216624185 ], [ 73.887145117959875, 15.578145532900553 ], [ 73.887096194811178, 15.576875267972184 ], [ 73.887258084700093, 15.576385266344118 ], [ 73.887624266755992, 15.575939191777493 ], [ 73.888059790666972, 15.575534736731992 ], [ 73.88858836656668, 15.575140811937359 ], [ 73.888933226210966, 15.574576949342063 ], [ 73.888702149875513, 15.573891170109309 ], [ 73.888472886340281, 15.573377092918866 ], [ 73.888750174708903, 15.572956740908236 ], [ 73.88929711037639, 15.572576588239015 ], [ 73.890033934623574, 15.572551890591985 ], [ 73.890585747244714, 15.572727561314396 ], [ 73.891231121199354, 15.572597489640541 ], [ 73.891709959178414, 15.572103452248305 ], [ 73.891617379703533, 15.571505594951539 ], [ 73.892625149315137, 15.570879599182547 ], [ 73.892815611918294, 15.571483393692668 ], [ 73.89384664340416, 15.571996264140108 ], [ 73.894304153581743, 15.571949213780011 ], [ 73.894737752403074, 15.571657673856409 ], [ 73.895945148332061, 15.572214003014668 ], [ 73.896035284389342, 15.572974351392581 ], [ 73.89665717368753, 15.573417697067104 ], [ 73.89640794958666, 15.573843068802258 ], [ 73.896912029326856, 15.574930575106347 ], [ 73.897435795646544, 15.575110336799979 ], [ 73.897853753002153, 15.57463782016003 ], [ 73.898628865243353, 15.574844019662397 ], [ 73.899274381131789, 15.574415749407498 ], [ 73.899852674290912, 15.574682147575638 ], [ 73.901109815327047, 15.574484690351664 ], [ 73.901597592441505, 15.574013361241308 ], [ 73.901689853912757, 15.573504247919605 ], [ 73.901620139256821, 15.572924886098777 ], [ 73.901154485851194, 15.572325798946181 ], [ 73.901389392603036, 15.571077986654085 ], [ 73.901412509848555, 15.570522700627548 ], [ 73.901708618820734, 15.569804322222465 ], [ 73.901864048026127, 15.568848972667052 ], [ 73.902344414937815, 15.567130540328556 ], [ 73.90264282090213, 15.566552306291783 ], [ 73.903149187753073, 15.566085779955136 ], [ 73.904115561199717, 15.565707572911542 ], [ 73.904551698660057, 15.565540352576059 ], [ 73.905088812148207, 15.566278649287632 ], [ 73.906010012014193, 15.567130776572423 ], [ 73.907302537689404, 15.567653420001131 ], [ 73.908456420976904, 15.568252791623859 ], [ 73.909706058385495, 15.568912778733035 ], [ 73.910340157584983, 15.569297131676812 ], [ 73.911036360015018, 15.569613429198203 ], [ 73.912137284921585, 15.570044373003615 ], [ 73.912476172565874, 15.569833053599318 ], [ 73.913105884393516, 15.569241346689239 ], [ 73.914116897821629, 15.568330157154881 ], [ 73.914850306674083, 15.56761187666428 ], [ 73.915565797729897, 15.566745442584212 ], [ 73.915171371743156, 15.566000022117612 ], [ 73.914726426301456, 15.564613029944345 ], [ 73.914705426385069, 15.564031064255648 ], [ 73.914867339630177, 15.563451901609296 ], [ 73.913723831884198, 15.563097727358626 ], [ 73.910420404987633, 15.56247539771619 ], [ 73.907376050422357, 15.562172385827376 ], [ 73.905808873832186, 15.561916003850982 ], [ 73.905995459306624, 15.561340615258359 ], [ 73.905856497118677, 15.560714979706868 ], [ 73.905923426098923, 15.559758299365406 ], [ 73.905831152949574, 15.559133365165684 ], [ 73.905670139816351, 15.558715310232481 ], [ 73.905075157755903, 15.558335642691967 ], [ 73.904336453334835, 15.557908638758567 ], [ 73.904085179278525, 15.557597563250306 ], [ 73.904038927719469, 15.557289657244835 ], [ 73.904611081791913, 15.556787921650109 ], [ 73.90577957977078, 15.556299928371644 ], [ 73.906265833342516, 15.55592339607993 ], [ 73.906698768308857, 15.5553833324094 ], [ 73.908782827428652, 15.555842863676718 ], [ 73.90977512355947, 15.555899079809688 ], [ 73.910643002125141, 15.555809957340335 ], [ 73.911894228653466, 15.55683313216465 ], [ 73.912541478290407, 15.557314314319667 ], [ 73.913651856168698, 15.557905043017826 ], [ 73.913975113127051, 15.557520700808903 ], [ 73.914546138915512, 15.556197651007967 ], [ 73.914679248579347, 15.555810395237653 ], [ 73.915546457001824, 15.555762217007882 ], [ 73.916624597039529, 15.555737753598933 ], [ 73.917999183815908, 15.555676846898228 ], [ 73.918569366984627, 15.555727188673149 ], [ 73.919320143864823, 15.555697699823153 ], [ 73.91938681772352, 15.556794895953749 ], [ 73.920455384415206, 15.556719042275834 ], [ 73.922457333924811, 15.556432069154839 ], [ 73.923705668776208, 15.556348698414222 ], [ 73.924731304980511, 15.556313142280688 ], [ 73.925755442794895, 15.556369758968861 ], [ 73.926114900960869, 15.557010412983303 ], [ 73.926306651748178, 15.557566549829376 ], [ 73.926775010879425, 15.558659629684513 ], [ 73.927105197441904, 15.559801826038129 ], [ 73.927263761767648, 15.560449658164552 ], [ 73.927465754247493, 15.561026441657761 ], [ 73.927533721680192, 15.561396287292325 ], [ 73.927901102987008, 15.562200974616781 ], [ 73.928644769701677, 15.562611161345995 ], [ 73.929825449734125, 15.563018462082509 ], [ 73.930678256365937, 15.563215863682462 ], [ 73.931809855146199, 15.563817053410892 ], [ 73.932994289238223, 15.564419039256737 ], [ 73.933508512754614, 15.564642006946887 ], [ 73.934579556999893, 15.565068097785785 ], [ 73.935119443587325, 15.564359184824026 ], [ 73.935519986202834, 15.563771088092038 ], [ 73.935800822916846, 15.563396307150191 ], [ 73.936435291323917, 15.562719564147846 ], [ 73.936652566841687, 15.562354059918412 ], [ 73.936781671815993, 15.562212597573343 ], [ 73.93705637123999, 15.562216774776029 ], [ 73.937627729405108, 15.562174238612281 ], [ 73.938129121385984, 15.562181860905172 ], [ 73.939241134198085, 15.562034845275587 ], [ 73.939737374340822, 15.562062873315671 ], [ 73.940346688123341, 15.562287265382947 ], [ 73.94105553344265, 15.562892221362416 ], [ 73.941552411389267, 15.563534933705531 ], [ 73.941923997709893, 15.56408354232817 ], [ 73.942150810641039, 15.564435303951162 ], [ 73.942443667711856, 15.564624154309993 ], [ 73.942570400235496, 15.56457143320565 ], [ 73.942660901008821, 15.564806444976744 ], [ 73.942887333952584, 15.565607416915588 ], [ 73.943016275433521, 15.565932603970928 ], [ 73.943315375795578, 15.566328090219292 ], [ 73.943635446429624, 15.566587277400284 ], [ 73.944154748122344, 15.566770822835144 ], [ 73.944790138200901, 15.566952614015731 ], [ 73.945422188343215, 15.567116785397516 ], [ 73.946170777825671, 15.567251099944789 ], [ 73.947100046359523, 15.567426796829833 ], [ 73.947829546642197, 15.567620544110557 ], [ 73.947934836380028, 15.567697422681915 ], [ 73.947803061612674, 15.568305021127065 ], [ 73.9476513074151, 15.568962018269223 ], [ 73.947608613184599, 15.569293627862539 ], [ 73.947385815722768, 15.569980657285182 ], [ 73.947148277805439, 15.571177534244216 ], [ 73.947038894444873, 15.571996988431057 ], [ 73.947140094153227, 15.572881723049035 ], [ 73.94733485609332, 15.5735377943695 ], [ 73.947861359579676, 15.574628776590734 ], [ 73.948312021001499, 15.575338418232723 ], [ 73.948732534064121, 15.57587882582953 ], [ 73.948535451775612, 15.576560548722139 ], [ 73.948086857377234, 15.577306953709607 ], [ 73.94758798067916, 15.577984122896929 ], [ 73.947285768552931, 15.578409032622444 ], [ 73.946774071099114, 15.579124412938787 ], [ 73.946553159201073, 15.579370985066065 ], [ 73.945568817652116, 15.579990549100689 ], [ 73.944705771124333, 15.580449442170805 ], [ 73.943783516636231, 15.580772549786175 ], [ 73.943071752690514, 15.58112009738408 ], [ 73.942391172861605, 15.581434941177317 ], [ 73.941955722612462, 15.582031173980056 ], [ 73.941169643738249, 15.582987528311724 ], [ 73.940205773896281, 15.583725195596296 ], [ 73.93911557756914, 15.583700625621718 ], [ 73.937641293067571, 15.583598785879516 ], [ 73.937722029153747, 15.585197962702937 ], [ 73.936903206687447, 15.586318356234115 ], [ 73.936027358268561, 15.587235233958809 ], [ 73.935678567596568, 15.587637924172684 ], [ 73.935190830007997, 15.58832372069104 ], [ 73.934298623267807, 15.589368040952229 ], [ 73.933635242583321, 15.589787079660129 ], [ 73.932329048142776, 15.591312296915994 ], [ 73.931894498005548, 15.59171595082047 ], [ 73.931219731174821, 15.592019793931106 ], [ 73.930340579650647, 15.592246903944057 ], [ 73.929523384931613, 15.592476369796163 ], [ 73.929273714368094, 15.592576311958503 ], [ 73.929086795618716, 15.592705503134139 ], [ 73.928726781395568, 15.593011256124491 ], [ 73.928449733775437, 15.593299410301872 ], [ 73.928162884637203, 15.593592130002643 ], [ 73.927731498366427, 15.594099572068785 ], [ 73.927040519639746, 15.595018423282584 ], [ 73.926545147269607, 15.595572044137239 ], [ 73.926145302645054, 15.595933774810725 ], [ 73.925917026358334, 15.596213238745497 ], [ 73.925775585718497, 15.596536471246898 ], [ 73.925522427895046, 15.597177860981436 ], [ 73.925132797115296, 15.597808545781064 ], [ 73.92483145815153, 15.598393420753215 ], [ 73.924288625089957, 15.599172671754411 ], [ 73.923803516870223, 15.599895735612645 ], [ 73.923305480995253, 15.600312551705512 ], [ 73.922686488763887, 15.600689790893366 ], [ 73.922329898020266, 15.600783374878393 ], [ 73.921950681409626, 15.600772861585618 ], [ 73.921225749958481, 15.600785361424325 ] ] ] } },
{ "type": "Feature", "properties": { "gp_code": "254464", "gp_name": "PALE, COTOMBI", "blklgdcode": "5930", "blk_lgdcod": "5930", "blkname": "Bicholim", "dtname": "North Goa", "stname": "GOA" }, "geometry": { "type": "Polygon", "coordinates": [ [ [ 74.030308790255091, 15.490517677087357 ], [ 74.029618758352726, 15.490870009180259 ], [ 74.028873233023717, 15.490114921690113 ], [ 74.027712161417298, 15.49083770278342 ], [ 74.026947835247711, 15.490254428571655 ], [ 74.025890231595739, 15.488902618404737 ], [ 74.024944284940275, 15.488129409089746 ], [ 74.024599492669637, 15.487776691420592 ], [ 74.024217260414531, 15.487546107326489 ], [ 74.023145242395501, 15.487333224748596 ], [ 74.022441462676042, 15.487197467829391 ], [ 74.022460424315085, 15.486469801847539 ], [ 74.022488626923419, 15.4857782980731 ], [ 74.022628753327965, 15.485127455078645 ], [ 74.022885535853604, 15.484101631316681 ], [ 74.0230862212847, 15.483608991219327 ], [ 74.023142241124162, 15.483333374113357 ], [ 74.023142381261351, 15.483179678698249 ], [ 74.023142513313687, 15.482985276377759 ], [ 74.023133256174674, 15.482822613618936 ], [ 74.023114680811247, 15.48265993428357 ], [ 74.022956287165414, 15.482343455763454 ], [ 74.022788639075486, 15.481773958040172 ], [ 74.022830878758469, 15.481430418302363 ], [ 74.022928847226723, 15.481082417788256 ], [ 74.022947649863951, 15.480824894416457 ], [ 74.023008295128761, 15.480634990787532 ], [ 74.023157615790225, 15.480345874778404 ], [ 74.023316116335593, 15.480079315758978 ], [ 74.023600681058042, 15.479663515138775 ], [ 74.023749866972238, 15.479482824407016 ], [ 74.02398775163924, 15.479374417683795 ], [ 74.024202104937402, 15.479220869098715 ], [ 74.024561140895202, 15.479058304670467 ], [ 74.025111192818386, 15.47882802771487 ], [ 74.025530907278721, 15.478724181330302 ], [ 74.026071523298157, 15.4786385421337 ], [ 74.027572570408694, 15.478539560212422 ], [ 74.028243724215329, 15.47858961520441 ], [ 74.028593393439678, 15.4785399229549 ], [ 74.029292535157325, 15.478485889902947 ], [ 74.029777387357186, 15.478418388608423 ], [ 74.029987171823805, 15.478377726794502 ], [ 74.030252929417458, 15.478350684709932 ], [ 74.030509233141046, 15.478341782360737 ], [ 74.030695751241808, 15.478310202955559 ], [ 74.030905505165705, 15.478283139218803 ], [ 74.031022034624371, 15.478233439969783 ], [ 74.031161840330327, 15.478170186756376 ], [ 74.03127842099299, 15.478093473931319 ], [ 74.031390343890848, 15.477994117751269 ], [ 74.031516332609471, 15.477831359299874 ], [ 74.031558281238262, 15.477754500039635 ], [ 74.031595520000081, 15.477632541020357 ], [ 74.031637644698691, 15.477469803927988 ], [ 74.031656273961048, 15.47733430285408 ], [ 74.031665665847328, 15.477207732659171 ], [ 74.03169835823546, 15.477054100220851 ], [ 74.03164710755189, 15.476760203779071 ], [ 74.031549377137168, 15.476547817425518 ], [ 74.031470234662351, 15.476222381230802 ], [ 74.031409737619526, 15.475982867088307 ], [ 74.031223401876758, 15.475702492938986 ], [ 74.03082733466799, 15.475345410626206 ], [ 74.030687581064313, 15.475159956241407 ], [ 74.030393984679989, 15.474952021657495 ], [ 74.030165638324675, 15.474825353041593 ], [ 74.029918665401937, 15.474694174656957 ], [ 74.029461910707511, 15.474558478703235 ], [ 74.029275457285422, 15.474472502736999 ], [ 74.02896796576033, 15.474386569156882 ], [ 74.028711547052339, 15.474318616334354 ], [ 74.027280870367946, 15.473825514870903 ], [ 74.026605137848307, 15.473409458406907 ], [ 74.026283696385107, 15.472753972400168 ], [ 74.027219439975568, 15.471130893971234 ], [ 74.027342503779565, 15.470996243257497 ], [ 74.027580441447199, 15.470630184346135 ], [ 74.027739016552729, 15.470363540087588 ], [ 74.028074718771038, 15.470047410713079 ], [ 74.028289161002391, 15.469798853379608 ], [ 74.028666914257457, 15.469491662235493 ], [ 74.02906316741749, 15.469202573947241 ], [ 74.0293382432356, 15.469030891980159 ], [ 74.029697254938895, 15.468818578212412 ], [ 74.030424471704123, 15.468452737954934 ], [ 74.031039858996223, 15.468186343698887 ], [ 74.031552603885672, 15.467996592104699 ], [ 74.032065452081383, 15.467707543286304 ], [ 74.032662122974571, 15.467477336816723 ], [ 74.033254215154727, 15.46718816433251 ], [ 74.033986106752678, 15.466826881272402 ], [ 74.034144679163276, 15.466646115265998 ], [ 74.034829591566833, 15.467215838164154 ], [ 74.035920105897574, 15.467568662743801 ], [ 74.036936033110237, 15.467993896072231 ], [ 74.037425432582069, 15.46821998519798 ], [ 74.038296902612259, 15.468414575410513 ], [ 74.038898117184146, 15.468591036969132 ], [ 74.039387716980301, 15.468202530267439 ], [ 74.040934922225048, 15.46896222659911 ], [ 74.04188090032153, 15.469509317916398 ], [ 74.041517230853486, 15.470083257889719 ], [ 74.041661326014932, 15.471122785217796 ], [ 74.041824301068715, 15.471705923772506 ], [ 74.041842568310031, 15.472745403127067 ], [ 74.04182377285936, 15.473346549155426 ], [ 74.04151555819044, 15.475091015854055 ], [ 74.041296249785177, 15.475759876286913 ], [ 74.04098844295136, 15.476537181782872 ], [ 74.040549935735328, 15.477296347993061 ], [ 74.039351242684816, 15.479456340862757 ], [ 74.038260089651914, 15.480866217162593 ], [ 74.037168918652696, 15.481855695870541 ], [ 74.035947330240532, 15.482772819365959 ], [ 74.03536873524753, 15.484499091631088 ], [ 74.035419897896219, 15.485027923075727 ], [ 74.035368369633176, 15.48546628270452 ], [ 74.035237651284604, 15.486103559080155 ], [ 74.034020443057798, 15.487752953192258 ], [ 74.033167145047528, 15.48828141012773 ], [ 74.033073884649653, 15.488317556272031 ], [ 74.031255349561533, 15.489690952711566 ], [ 74.030308790255091, 15.490517677087357 ] ] ] } },
{ "type": "Feature", "properties": { "gp_code": "254464", "gp_name": "PALE, COTOMBI", "blklgdcode": "5930", "blk_lgdcod": "5930", "blkname": "Bicholim", "dtname": "North Goa", "stname": "GOA" }, "geometry": { "type": "Polygon", "coordinates": [ [ [ 74.081065204605679, 15.480205125820492 ], [ 74.079363677778247, 15.481149583178865 ], [ 74.078254309606322, 15.481840893790395 ], [ 74.077638870211899, 15.48220706878867 ], [ 74.077265987622326, 15.482627308886027 ], [ 74.076711224035449, 15.483011472918559 ], [ 74.076212476694764, 15.483223867353775 ], [ 74.074944472331879, 15.483648474636059 ], [ 74.074310417149832, 15.483992064364083 ], [ 74.073914219685349, 15.484281196053981 ], [ 74.073410696900638, 15.484904835133845 ], [ 74.073261425646479, 15.485433680258 ], [ 74.072776441394268, 15.486378162221285 ], [ 74.072459460964794, 15.486839194245301 ], [ 74.072011852018264, 15.487557755267529 ], [ 74.071713438867434, 15.488109172633237 ], [ 74.071438252556561, 15.488674043970304 ], [ 74.0709720511786, 15.489306781176476 ], [ 74.07068304428708, 15.489645738732753 ], [ 74.07046849156292, 15.49014289804229 ], [ 74.070426569883566, 15.490269423097255 ], [ 74.070198048356744, 15.490789104236693 ], [ 74.070020824225949, 15.491096391013269 ], [ 74.069950901160837, 15.491299811292542 ], [ 74.069834322294852, 15.491589129273342 ], [ 74.0697641962105, 15.492117926136737 ], [ 74.06977358091028, 15.492348317280163 ], [ 74.06979213830742, 15.49265574890369 ], [ 74.069820087590841, 15.49303083503537 ], [ 74.069871248442908, 15.49353255002168 ], [ 74.069871174781085, 15.494047872971423 ], [ 74.069861755046986, 15.494318933636206 ], [ 74.069871174781085, 15.494472656263442 ], [ 74.069889741161347, 15.494617351606124 ], [ 74.070020264575518, 15.494743892101306 ], [ 74.070267311160123, 15.494983439919055 ], [ 74.070556249779671, 15.495376758756777 ], [ 74.070863858085772, 15.495810634823243 ], [ 74.071031668770729, 15.49624911701966 ], [ 74.071180782819695, 15.496511225619159 ], [ 74.071138842275715, 15.496701005593883 ], [ 74.071147990718543, 15.497329247985762 ], [ 74.071162360169865, 15.497611819276074 ], [ 74.071017461914536, 15.497496543567379 ], [ 74.070509349637007, 15.497180097280276 ], [ 74.069455929439314, 15.496492916073715 ], [ 74.068435139645985, 15.495557185423747 ], [ 74.067474986134329, 15.494815836722982 ], [ 74.066729200293878, 15.494250808168985 ], [ 74.065559247942545, 15.493396345292743 ], [ 74.06488809683087, 15.492795142398572 ], [ 74.064230855233021, 15.492248163734839 ], [ 74.063596986900535, 15.491597250209715 ], [ 74.062739437164041, 15.490783516255787 ], [ 74.062068245628126, 15.490272743863839 ], [ 74.061159367054614, 15.489761850745172 ], [ 74.060702634818057, 15.489445384824862 ], [ 74.059868352345703, 15.488807969849637 ], [ 74.059066638293984, 15.488229290205638 ], [ 74.058288311880673, 15.487768121038343 ], [ 74.05742602083609, 15.487252737418551 ], [ 74.057300414799812, 15.48606857172426 ], [ 74.057375204038777, 15.48543583672906 ], [ 74.057375239073068, 15.485169053125476 ], [ 74.057184242870633, 15.484423310058968 ], [ 74.056499369094624, 15.483135103924569 ], [ 74.053595753584929, 15.481114152600451 ], [ 74.050943876560552, 15.479545300659677 ], [ 74.048800480122978, 15.476914329907757 ], [ 74.048800929280603, 15.475223948857774 ], [ 74.047197765281851, 15.474287985178972 ], [ 74.046624476637191, 15.474057392109662 ], [ 74.045552762248718, 15.47290909367042 ], [ 74.044244044440561, 15.469627532067772 ], [ 74.044856214865632, 15.46447083821157 ], [ 74.044474262884918, 15.463254922354098 ], [ 74.044092310005894, 15.462567806807975 ], [ 74.043798905861067, 15.462124811656238 ], [ 74.043290999297724, 15.461650108068813 ], [ 74.043491417030893, 15.461523620926023 ], [ 74.043454287863568, 15.461311180846121 ], [ 74.043435620871946, 15.461279566808175 ], [ 74.043253806350037, 15.461279501006901 ], [ 74.043239842937268, 15.461297547000617 ], [ 74.043128015260791, 15.461311121105496 ], [ 74.043002184645687, 15.461030791157004 ], [ 74.042857775972195, 15.46062411599552 ], [ 74.04238268935778, 15.460167459390238 ], [ 74.042312721376916, 15.460095133884952 ], [ 74.042890866313996, 15.459263694824832 ], [ 74.04292827485736, 15.459001563280495 ], [ 74.043222199126774, 15.458224264681364 ], [ 74.043637651979367, 15.455756702855416 ], [ 74.043894156027278, 15.455386194346042 ], [ 74.044057564069021, 15.454360327970001 ], [ 74.044095087596745, 15.453849507251791 ], [ 74.044113889335662, 15.453284621402933 ], [ 74.044566060825488, 15.452706207833911 ], [ 74.045004302140214, 15.452317692120536 ], [ 74.045531182918978, 15.451644324576234 ], [ 74.045932146844365, 15.451115649430399 ], [ 74.045894932337092, 15.450754088110827 ], [ 74.045732083945751, 15.450012827421938 ], [ 74.045531758739074, 15.449429742091267 ], [ 74.045657670202559, 15.449185755986361 ], [ 74.045932787343148, 15.448815284218909 ], [ 74.046114688103344, 15.448476308296836 ], [ 74.046259183913421, 15.448159982740664 ], [ 74.046333981237254, 15.447685378774725 ], [ 74.04670694916679, 15.447269727849198 ], [ 74.046157611404254, 15.445389456392656 ], [ 74.046702931002542, 15.445037092789883 ], [ 74.047709654076812, 15.444513090380665 ], [ 74.049182485104282, 15.44395762842298 ], [ 74.051177337923122, 15.443067621315731 ], [ 74.052598882334351, 15.442647648167073 ], [ 74.052850525598274, 15.442629664625011 ], [ 74.053353901059282, 15.442647819612073 ], [ 74.053679982320915, 15.442873815168918 ], [ 74.053931656127531, 15.443136096990965 ], [ 74.054038649969456, 15.443728115113601 ], [ 74.05407118784737, 15.443886326791056 ], [ 74.054159435645929, 15.445282876999304 ], [ 74.054089373341967, 15.445807138956326 ], [ 74.053893492999308, 15.446783293242646 ], [ 74.053781286233828, 15.447845377169978 ], [ 74.053729764259003, 15.448911958116691 ], [ 74.053529080624529, 15.450132234587809 ], [ 74.052703730101058, 15.451808802398647 ], [ 74.052395941233584, 15.45259055471135 ], [ 74.051929666193757, 15.453426599969061 ], [ 74.051785127264552, 15.453670651215162 ], [ 74.051230332236642, 15.454339431909096 ], [ 74.050941278632735, 15.45486358437967 ], [ 74.050796516921338, 15.455857914787064 ], [ 74.051029288377777, 15.456517805048742 ], [ 74.051588466285907, 15.457250119302296 ], [ 74.052236105791692, 15.457738361422438 ], [ 74.05270210774367, 15.458086550965167 ], [ 74.053671484258317, 15.458488851802269 ], [ 74.054281970342259, 15.458823515168291 ], [ 74.05509279780253, 15.459067721965638 ], [ 74.056099437333515, 15.459275858651358 ], [ 74.057143432407258, 15.459587917831277 ], [ 74.058704771744715, 15.459678647229053 ], [ 74.059841986792136, 15.459764694274071 ], [ 74.060755509655678, 15.459800970076012 ], [ 74.061888084006313, 15.459850943883312 ], [ 74.062107042068632, 15.459765072634053 ], [ 74.062302848749425, 15.45957530899514 ], [ 74.062428814111826, 15.459240862431322 ], [ 74.062592032609047, 15.459014902034021 ], [ 74.063090779051407, 15.458612737285844 ], [ 74.063687416706955, 15.458350742582976 ], [ 74.064726853728942, 15.457966755299935 ], [ 74.065411975439929, 15.457844812330972 ], [ 74.066078493041417, 15.457862927023676 ], [ 74.066600396255154, 15.458125195076429 ], [ 74.067136260186757, 15.45858169514131 ], [ 74.067551077032149, 15.459051867156242 ], [ 74.068016942440181, 15.459711763696122 ], [ 74.068324424982151, 15.460638256383376 ], [ 74.068394252825826, 15.461424714804512 ], [ 74.068342817089288, 15.462084563092933 ], [ 74.068091047162909, 15.462572681265396 ], [ 74.06722865910028, 15.463657279820328 ], [ 74.066920918741815, 15.464339605647265 ], [ 74.066524522749646, 15.465279697365915 ], [ 74.066328666661505, 15.466224242745744 ], [ 74.066272540820862, 15.467182349745199 ], [ 74.066649855698088, 15.468316884667226 ], [ 74.066705695874461, 15.468927006048776 ], [ 74.066775528209689, 15.46923889138473 ], [ 74.06738610143023, 15.469519205027751 ], [ 74.067693663922242, 15.469623221393402 ], [ 74.068285672559099, 15.469605150152059 ], [ 74.068863675562369, 15.469311514985543 ], [ 74.069921813711957, 15.468927510795057 ], [ 74.070425181986451, 15.468421364827174 ], [ 74.070984696762835, 15.467829347118863 ], [ 74.071777161760409, 15.467006898219491 ], [ 74.072224618891624, 15.466713126037504 ], [ 74.072784086955622, 15.466030747425828 ], [ 74.073194354732408, 15.465420584610236 ], [ 74.073860839994538, 15.464670474318954 ], [ 74.074345688601127, 15.46397446223353 ], [ 74.074886389960554, 15.463626535399847 ], [ 74.075389867829514, 15.463414169337927 ], [ 74.075748725920917, 15.463242353567875 ], [ 74.076089034700004, 15.462962272985761 ], [ 74.076359456346623, 15.462664005026413 ], [ 74.076522531113412, 15.462401881248024 ], [ 74.076685752305579, 15.462053881642627 ], [ 74.076844290580169, 15.461583853238224 ], [ 74.07690483433538, 15.461403061010424 ], [ 74.076932903993054, 15.461335210420808 ], [ 74.077277833705978, 15.460991794338398 ], [ 74.078294148092539, 15.460465757784544 ], [ 74.078785230108934, 15.460956033900331 ], [ 74.079175940663646, 15.461304857865743 ], [ 74.079525011610031, 15.461635024023067 ], [ 74.079974173743636, 15.462124707759934 ], [ 74.080460052717882, 15.462651044862593 ], [ 74.080885055560273, 15.463199112158147 ], [ 74.081230415566196, 15.463777679117445 ], [ 74.081540751157505, 15.46420668037298 ], [ 74.081954424447545, 15.464578406861341 ], [ 74.082424863178673, 15.464892206950422 ], [ 74.083090365683873, 15.465244888304969 ], [ 74.083801162144013, 15.465372333335056 ], [ 74.084971334582562, 15.465619167004027 ], [ 74.085780542380377, 15.46570733189475 ], [ 74.086929996973538, 15.465782200854616 ], [ 74.087762223202191, 15.465888749792247 ], [ 74.088824411855398, 15.466192768849208 ], [ 74.090451489905334, 15.466726055644717 ], [ 74.090767036623603, 15.466807275619706 ], [ 74.091119439421362, 15.466916115756019 ], [ 74.095398950552863, 15.468034012754627 ], [ 74.094834962166331, 15.469692784359575 ], [ 74.094648516829125, 15.469981999231461 ], [ 74.094438779973203, 15.4702712465985 ], [ 74.094121806730271, 15.470723247341624 ], [ 74.093842089317107, 15.471238470415948 ], [ 74.093534454061526, 15.471776339680241 ], [ 74.093296746362626, 15.472160514335737 ], [ 74.093007702640151, 15.472707319292203 ], [ 74.092639473323743, 15.47335365960561 ], [ 74.092452998342125, 15.473688137053124 ], [ 74.092215270880288, 15.474004458259087 ], [ 74.091949586948473, 15.474352460288461 ], [ 74.091609297034026, 15.474786422886446 ], [ 74.091315632377743, 15.475292593980953 ], [ 74.090812190441383, 15.475708367023421 ], [ 74.090257488838276, 15.475843973051449 ], [ 74.089763404652217, 15.47595693630687 ], [ 74.08851421011309, 15.476205487976893 ], [ 74.087940900807169, 15.476264208758801 ], [ 74.087386185729343, 15.476381736846934 ], [ 74.086752232056909, 15.476458576705012 ], [ 74.086057722052885, 15.476765856203754 ], [ 74.084990307001362, 15.477362429842112 ], [ 74.084435568567315, 15.477805292829384 ], [ 74.083880772641123, 15.478551002616006 ], [ 74.083521793277185, 15.479111450198177 ], [ 74.083307377995254, 15.479649262639814 ], [ 74.083204819135901, 15.480015360139053 ], [ 74.083106853362608, 15.480205159583836 ], [ 74.082771207738176, 15.480168964406728 ], [ 74.082216587881732, 15.480092149301228 ], [ 74.081065204605679, 15.480205125820492 ] ] ] } }
]
}
